[{"OBJECT_NAME":"HELIOS 1B","OBJECT_ID":"1999-064A","EPOCH":"2026-03-14T23:02:23.836704","MEAN_MOTION":14.87723281,"ECCENTRICITY":0.00023635,"INCLINATION":98.1689,"RA_OF_ASC_NODE":336.3579,"ARG_OF_PERICENTER":68.254,"MEAN_ANOMALY":291.8927,"EPHEMERIS_TYPE":0,"CLASSIFICATION_TYPE":"U","NORAD_CAT_ID":25977,"ELEMENT_SET_NO":999,"REV_AT_EPOCH":68604,"BSTAR":0.00022990385,"MEAN_MOTION_DOT":2.037e-5,"MEAN_MOTION_DDOT":0},{"OBJECT_NAME":"TERRA","OBJECT_ID":"1999-068A","EPOCH":"2026-03-14T22:02:57.039072","MEAN_MOTION":14.61020961,"ECCENTRICITY":0.0003016,"INCLINATION":97.9582,"RA_OF_ASC_NODE":127.1534,"ARG_OF_PERICENTER":139.8124,"MEAN_ANOMALY":273.4935,"EPHEMERIS_TYPE":0,"CLASSIFICATION_TYPE":"U","NORAD_CAT_ID":25994,"ELEMENT_SET_NO":999,"REV_AT_EPOCH":39584,"BSTAR":0.00011258188,"MEAN_MOTION_DOT":5.08e-6,"MEAN_MOTION_DDOT":0},{"OBJECT_NAME":"SL-16 R/B","OBJECT_ID":"2000-006B","EPOCH":"2026-03-14T11:07:26.850144","MEAN_MOTION":14.15824818,"ECCENTRICITY":0.0016486,"INCLINATION":71.0004,"RA_OF_ASC_NODE":87.7988,"ARG_OF_PERICENTER":183.0564,"MEAN_ANOMALY":177.0461,"EPHEMERIS_TYPE":0,"CLASSIFICATION_TYPE":"U","NORAD_CAT_ID":26070,"ELEMENT_SET_NO":999,"REV_AT_EPOCH":34923,"BSTAR":-7.5489621e-5,"MEAN_MOTION_DOT":-1.96e-6,"MEAN_MOTION_DDOT":0},{"OBJECT_NAME":"TITAN 4B R/B","OBJECT_ID":"2000-047B","EPOCH":"2026-03-14T22:20:23.623008","MEAN_MOTION":15.09620681,"ECCENTRICITY":0.00387121,"INCLINATION":67.9904,"RA_OF_ASC_NODE":25.7715,"ARG_OF_PERICENTER":29.1879,"MEAN_ANOMALY":331.1422,"EPHEMERIS_TYPE":0,"CLASSIFICATION_TYPE":"U","NORAD_CAT_ID":26474,"ELEMENT_SET_NO":999,"REV_AT_EPOCH":39370,"BSTAR":0.00034558475,"MEAN_MOTION_DOT":5.536e-5,"MEAN_MOTION_DDOT":0},{"OBJECT_NAME":"ENVISAT","OBJECT_ID":"2002-009A","EPOCH":"2026-03-14T21:32:36.579840","MEAN_MOTION":14.39039034,"ECCENTRICITY":0.00013,"INCLINATION":98.3734,"RA_OF_ASC_NODE":27.3711,"ARG_OF_PERICENTER":82.8296,"MEAN_ANOMALY":344.8385,"EPHEMERIS_TYPE":0,"CLASSIFICATION_TYPE":"U","NORAD_CAT_ID":27386,"ELEMENT_SET_NO":999,"REV_AT_EPOCH":25992,"BSTAR":5.7296367e-5,"MEAN_MOTION_DOT":1.34e-6,"MEAN_MOTION_DDOT":0},{"OBJECT_NAME":"IDEFIX & ARIANE 42P R/B","OBJECT_ID":"2002-021B","EPOCH":"2026-03-14T19:26:04.442496","MEAN_MOTION":14.3103019,"ECCENTRICITY":0.00118737,"INCLINATION":98.5873,"RA_OF_ASC_NODE":12.355,"ARG_OF_PERICENTER":166.9758,"MEAN_ANOMALY":193.1733,"EPHEMERIS_TYPE":0,"CLASSIFICATION_TYPE":"U","NORAD_CAT_ID":27422,"ELEMENT_SET_NO":999,"REV_AT_EPOCH":24475,"BSTAR":0.00013832213,"MEAN_MOTION_DOT":3.21e-6,"MEAN_MOTION_DDOT":0},{"OBJECT_NAME":"AQUA","OBJECT_ID":"2002-022A","EPOCH":"2026-03-14T21:06:47.853792","MEAN_MOTION":14.61990929,"ECCENTRICITY":6.179e-5,"INCLINATION":98.4182,"RA_OF_ASC_NODE":41.3394,"ARG_OF_PERICENTER":100.4652,"MEAN_ANOMALY":287.3845,"EPHEMERIS_TYPE":0,"CLASSIFICATION_TYPE":"U","NORAD_CAT_ID":27424,"ELEMENT_SET_NO":999,"REV_AT_EPOCH":26949,"BSTAR":0.00024828752,"MEAN_MOTION_DOT":1.195e-5,"MEAN_MOTION_DDOT":0},{"OBJECT_NAME":"CZ-4B R/B","OBJECT_ID":"2002-024C","EPOCH":"2026-03-14T21:42:27.078048","MEAN_MOTION":14.14548742,"ECCENTRICITY":0.00502291,"INCLINATION":98.8828,"RA_OF_ASC_NODE":127.2845,"ARG_OF_PERICENTER":9.4487,"MEAN_ANOMALY":163.4282,"EPHEMERIS_TYPE":0,"CLASSIFICATION_TYPE":"U","NORAD_CAT_ID":27432,"ELEMENT_SET_NO":999,"REV_AT_EPOCH":22997,"BSTAR":5.0588673e-5,"MEAN_MOTION_DOT":5.4e-7,"MEAN_MOTION_DDOT":0},{"OBJECT_NAME":"MIDORI II (ADEOS-II)","OBJECT_ID":"2002-056A","EPOCH":"2026-03-14T20:15:25.052544","MEAN_MOTION":14.29289539,"ECCENTRICITY":0.00014008,"INCLINATION":98.7775,"RA_OF_ASC_NODE":32.3574,"ARG_OF_PERICENTER":35.7423,"MEAN_ANOMALY":324.3852,"EPHEMERIS_TYPE":0,"CLASSIFICATION_TYPE":"U","NORAD_CAT_ID":27597,"ELEMENT_SET_NO":999,"REV_AT_EPOCH":21103,"BSTAR":0.00015166012,"MEAN_MOTION_DOT":3.41e-6,"MEAN_MOTION_DDOT":0},{"OBJECT_NAME":"H-2A R/B","OBJECT_ID":"2002-056E","EPOCH":"2026-03-14T20:53:18.855168","MEAN_MOTION":14.3376448,"ECCENTRICITY":0.00707929,"INCLINATION":98.321,"RA_OF_ASC_NODE":34.0389,"ARG_OF_PERICENTER":145.3466,"MEAN_ANOMALY":269.5911,"EPHEMERIS_TYPE":0,"CLASSIFICATION_TYPE":"U","NORAD_CAT_ID":27601,"ELEMENT_SET_NO":999,"REV_AT_EPOCH":21485,"BSTAR":0.00011573585,"MEAN_MOTION_DOT":2.89e-6,"MEAN_MOTION_DDOT":0},{"OBJECT_NAME":"CZ-4B R/B","OBJECT_ID":"2003-049C","EPOCH":"2026-03-14T22:53:20.486112","MEAN_MOTION":14.55025743,"ECCENTRICITY":0.0047462,"INCLINATION":98.6882,"RA_OF_ASC_NODE":69.0652,"ARG_OF_PERICENTER":214.5477,"MEAN_ANOMALY":145.2633,"EPHEMERIS_TYPE":0,"CLASSIFICATION_TYPE":"U","NORAD_CAT_ID":28059,"ELEMENT_SET_NO":999,"REV_AT_EPOCH":18736,"BSTAR":0.0001095041,"MEAN_MOTION_DOT":4.27e-6,"MEAN_MOTION_DDOT":0},{"OBJECT_NAME":"CZ-2C R/B","OBJECT_ID":"2004-012C","EPOCH":"2026-03-14T22:00:02.699424","MEAN_MOTION":15.65193333,"ECCENTRICITY":0.00129636,"INCLINATION":97.7224,"RA_OF_ASC_NODE":139.7067,"ARG_OF_PERICENTER":287.8705,"MEAN_ANOMALY":72.1139,"EPHEMERIS_TYPE":0,"CLASSIFICATION_TYPE":"U","NORAD_CAT_ID":28222,"ELEMENT_SET_NO":999,"REV_AT_EPOCH":20509,"BSTAR":0.00070662398,"MEAN_MOTION_DOT":0.00070462,"MEAN_MOTION_DDOT":0},{"OBJECT_NAME":"SL-16 R/B","OBJECT_ID":"2004-021B","EPOCH":"2026-03-14T19:56:52.764000","MEAN_MOTION":14.14595821,"ECCENTRICITY":0.00043484,"INCLINATION":70.9997,"RA_OF_ASC_NODE":221.7021,"ARG_OF_PERICENTER":2.1276,"MEAN_ANOMALY":357.9864,"EPHEMERIS_TYPE":0,"CLASSIFICATION_TYPE":"U","NORAD_CAT_ID":28353,"ELEMENT_SET_NO":999,"REV_AT_EPOCH":12356,"BSTAR":-0.00012093665,"MEAN_MOTION_DOT":-2.8e-6,"MEAN_MOTION_DDOT":0},{"OBJECT_NAME":"CZ-4B R/B","OBJECT_ID":"2004-035C","EPOCH":"2026-03-14T19:36:43.680672","MEAN_MOTION":15.29164354,"ECCENTRICITY":0.00304945,"INCLINATION":97.3497,"RA_OF_ASC_NODE":107.9986,"ARG_OF_PERICENTER":312.5769,"MEAN_ANOMALY":47.2899,"EPHEMERIS_TYPE":0,"CLASSIFICATION_TYPE":"U","NORAD_CAT_ID":28415,"ELEMENT_SET_NO":999,"REV_AT_EPOCH":18069,"BSTAR":0.0003781396,"MEAN_MOTION_DOT":0.0001078,"MEAN_MOTION_DDOT":0},{"OBJECT_NAME":"CZ-2C R/B","OBJECT_ID":"2004-046B","EPOCH":"2026-03-14T17:52:02.960544","MEAN_MOTION":14.26994029,"ECCENTRICITY":0.01401506,"INCLINATION":98.1981,"RA_OF_ASC_NODE":348.4138,"ARG_OF_PERICENTER":139.5528,"MEAN_ANOMALY":221.6175,"EPHEMERIS_TYPE":0,"CLASSIFICATION_TYPE":"U","NORAD_CAT_ID":28480,"ELEMENT_SET_NO":999,"REV_AT_EPOCH":10922,"BSTAR":6.7910394e-5,"MEAN_MOTION_DOT":1.43e-6,"MEAN_MOTION_DDOT":0},{"OBJECT_NAME":"ARIANE 5 R/B","OBJECT_ID":"2004-049H","EPOCH":"2026-03-14T21:17:48.153696","MEAN_MOTION":14.85276439,"ECCENTRICITY":0.00835705,"INCLINATION":98.2635,"RA_OF_ASC_NODE":242.5391,"ARG_OF_PERICENTER":335.0147,"MEAN_ANOMALY":24.7032,"EPHEMERIS_TYPE":0,"CLASSIFICATION_TYPE":"U","NORAD_CAT_ID":28499,"ELEMENT_SET_NO":999,"REV_AT_EPOCH":14656,"BSTAR":0.00010191962,"MEAN_MOTION_DOT":8.66e-6,"MEAN_MOTION_DDOT":0},{"OBJECT_NAME":"CZ-2D R/B","OBJECT_ID":"2005-024B","EPOCH":"2026-03-14T18:36:48.011616","MEAN_MOTION":15.6065166,"ECCENTRICITY":0.00049059,"INCLINATION":97.3595,"RA_OF_ASC_NODE":89.11,"ARG_OF_PERICENTER":33.6161,"MEAN_ANOMALY":326.5407,"EPHEMERIS_TYPE":0,"CLASSIFICATION_TYPE":"U","NORAD_CAT_ID":28738,"ELEMENT_SET_NO":999,"REV_AT_EPOCH":14057,"BSTAR":0.0007235941,"MEAN_MOTION_DOT":0.00060175,"MEAN_MOTION_DDOT":0}]
